NORAD_CAT_ID,OBJECT_NAME,OBJECT_TYPE,EPOCH,MEAN_MOTION,ECCENTRICITY,INCLINATION,RA_OF_ASC_NODE,ARG_OF_PERICENTER,MEAN_ANOMALY,BSTAR,MEAN_MOTION_DOT,MEAN_MOTION_DDOT,TLE_LINE0,TLE_LINE1,TLE_LINE2,SEMIMAJOR_AXIS,PERIOD,APOGEE,PERIGEE,DECAYED
37853,RAX-2,PAYLOAD,2021-03-08 20:41:50,15.05013017,0.0165553,101.7237,287.3562,29.2476,331.7881,8.894799999999999e-05,1.556e-05,0.0,0 RAX-2,1 37853U 11061D   21067.86238932  .00001556  00000-0  88948-4 0  9990,2 37853 101.7237 287.3562 0165553  29.2476 331.7881 15.05013017510591,6929.603,95.68,666.189,436.746,0.0
37853,RAX-2,PAYLOAD,2021-03-09 07:51:57,15.05014326,0.0165554,101.7237,288.0605,27.8706,333.1254,8.556799999999999e-05,1.49e-05,0.0,0 RAX-2,1 37853U 11061D   21068.32774821  .00001490  00000-0  85568-4 0  9996,2 37853 101.7237 288.0605 0165554  27.8706 333.1254 15.05014326511144,6929.599,95.68,666.186,436.741,0.0
37853,RAX-2,PAYLOAD,2021-03-09 12:39:09,15.05014676,0.0165554,101.7236,288.3623,27.2796,333.6991,8.238200000000001e-05,1.428e-05,0.0,0 RAX-2,1 37853U 11061D   21068.52718765  .00001428  00000-0  82382-4 0  9995,2 37853 101.7236 288.3623 0165554  27.2796 333.6991 15.05014676510699,6929.598000000001,95.68,666.185,436.74,0.0
37853,RAX-2,PAYLOAD,2021-03-10 12:35:06,15.05017108,0.016555,101.7235,289.8716,24.33,336.5615,7.4718e-05,1.28e-05,0.0,0 RAX-2,1 37853U 11061D   21069.52438340  .00001280  00000-0  74718-4 0  9994,2 37853 101.7235 289.8716 0165550  24.3300 336.5615 15.05017108511321,6929.59,95.68,666.175,436.736,0.0
37853,RAX-2,PAYLOAD,2021-03-10 14:10:50,15.05016945,0.0165554,101.7234,289.9722,24.1353,336.7504,7.168699999999999e-05,1.221e-05,0.0,0 RAX-2,1 37853U 11061D   21069.59086327  .00001221  00000-0  71687-4 0  9992,2 37853 101.7234 289.9722 0165554  24.1353 336.7504 15.05016945510852,6929.5909999999985,95.68,666.178,436.73400000000004,0.0
37853,RAX-2,PAYLOAD,2021-03-11 14:06:48,15.05019333,0.0165553,101.7233,291.4815,21.1824,339.6139,6.6283e-05,1.117e-05,0.0,0 RAX-2,1 37853U 11061D   21070.58805693  .00001117  00000-0  66283-4 0  9998,2 37853 101.7233 291.4815 0165553  21.1824 339.6139 15.05019333511009,6929.583000000001,95.68,666.17,436.727,0.0
37853,RAX-2,PAYLOAD,2021-03-11 15:42:31,15.05019486,0.0165553,101.7233,291.5821,20.9859,339.8043,6.597100000000001e-05,1.111e-05,0.0,0 RAX-2,1 37853U 11061D   21070.65453646  .00001111  00000-0  65971-4 0  9990,2 37853 101.7233 291.5821 0165553  20.9859 339.8043 15.05019486511490,6929.583000000001,95.68,666.169,436.727,0.0
37853,RAX-2,PAYLOAD,2021-03-12 04:28:22,15.05020161,0.0165553,101.7232,292.387,19.4113,341.3304,5.9083e-05,9.77e-06,0.0,0 RAX-2,1 37853U 11061D   21071.18637259  .00000977  00000-0  59083-4 0  9999,2 37853 101.7232 292.3870 0165553  19.4113 341.3304 15.05020161511094,6929.581,95.68,666.1669999999998,436.725,0.0
37853,RAX-2,PAYLOAD,2021-03-12 14:02:45,15.05021794,0.0165554,101.7231,292.9907,18.227999999999998,342.4771,6.3852e-05,1.069e-05,0.0,0 RAX-2,1 37853U 11061D   21071.58524889  .00001069  00000-0  63852-4 0  9999,2 37853 101.7231 292.9907 0165554  18.2280 342.4771 15.05021794511153,6929.576,95.68,666.163,436.719,0.0
37853,RAX-2,PAYLOAD,2021-03-13 02:48:36,15.05023323,0.0165548,101.723,293.7956,16.6534,344.0025,6.4249e-05,1.077e-05,0.0,0 RAX-2,1 37853U 11061D   21072.11708359  .00001077  00000-0  64249-4 0  9995,2 37853 101.7230 293.7956 0165548  16.6534 344.0025 15.05023323511714,6929.571,95.68,666.154,436.718,0.0
37853,RAX-2,PAYLOAD,2021-03-13 12:22:58,15.05024749,0.0165543,101.7229,294.3993,15.4701,345.1485,6.7505e-05,1.1400000000000001e-05,0.0,0 RAX-2,1 37853U 11061D   21072.51595915  .00001140  00000-0  67505-4 0  9990,2 37853 101.7229 294.3993 0165543  15.4701 345.1485 15.05024749511296,6929.566999999999,95.679,666.1460000000002,436.718,0.0
37853,RAX-2,PAYLOAD,2021-03-13 20:21:37,15.05026266,0.016553599999999998,101.7228,294.9024,14.4859,346.1015,7.216e-05,1.23e-05,0.0,0 RAX-2,1 37853U 11061D   21072.84835485  .00001230  00000-0  72160-4 0  9998,2 37853 101.7228 294.9024 0165536  14.4859 346.1015 15.05026266511343,6929.562,95.679,666.1360000000002,436.718,0.0
37853,RAX-2,PAYLOAD,2021-03-14 04:20:16,15.05027084,0.0165532,101.7227,295.4055,13.5018,347.0543,7.1362e-05,1.215e-05,0.0,0 RAX-2,1 37853U 11061D   21073.18075074  .00001215  00000-0  71362-4 0  9992,2 37853 101.7227 295.4055 0165532  13.5018 347.0543 15.05027084511878,6929.56,95.679,666.1310000000002,436.718,0.0
37853,RAX-2,PAYLOAD,2021-03-14 13:54:39,15.05030204,0.016552200000000003,101.7227,296.0091,12.3181,348.2002,8.7309e-05,1.524e-05,0.0,0 RAX-2,1 37853U 11061D   21073.57962424  .00001524  00000-0  87309-4 0  9990,2 37853 101.7227 296.0091 0165522  12.3181 348.2002 15.05030204511457,6929.55,95.679,666.1139999999998,436.716,0.0
37853,RAX-2,PAYLOAD,2021-03-15 10:39:08,15.05033761,0.0165523,101.7225,297.3171,9.7569,350.6791,9.544100000000001e-05,1.681e-05,0.0,0 RAX-2,1 37853U 11061D   21074.44385053  .00001681  00000-0  95441-4 0  9994,2 37853 101.7225 297.3171 0165523   9.7569 350.6791 15.05033761512060,6929.5390000000025,95.679,666.1039999999998,436.704,0.0
37853,RAX-2,PAYLOAD,2021-03-15 13:50:36,15.050340300000002,0.0165523,101.7225,297.5183,9.363999999999999,351.0594,9.4304e-05,1.659e-05,0.0,0 RAX-2,1 37853U 11061D   21074.57680844  .00001659  00000-0  94304-4 0  9996,2 37853 101.7225 297.5183 0165523   9.3640 351.0594 15.05034030511606,6929.538000000001,95.679,666.1030000000002,436.70300000000003,0.0
37853,RAX-2,PAYLOAD,2021-03-15 15:26:20,15.05034153,0.0165523,101.7225,297.6189,9.1675,351.2495,9.3499e-05,1.644e-05,0.0,0 RAX-2,1 37853U 11061D   21074.64328736  .00001644  00000-0  93499-4 0  9991,2 37853 101.7225 297.6189 0165523   9.1675 351.2495 15.05034153511618,6929.538000000001,95.679,666.1030000000002,436.70300000000003,0.0
37853,RAX-2,PAYLOAD,2021-03-16 10:35:05,15.05036488,0.0165512,101.7224,298.8263,6.8016,353.5387,9.2796e-05,1.63e-05,0.0,0 RAX-2,1 37853U 11061D   21075.44103326  .00001630  00000-0  92796-4 0  9990,2 37853 101.7224 298.8263 0165512   6.8016 353.5387 15.05036488511735,6929.531,95.679,666.0880000000002,436.704,0.0
37853,RAX-2,PAYLOAD,2021-03-16 13:46:32,15.05036901,0.0165512,101.7223,299.0275,6.4083,353.9193,9.2756e-05,1.629e-05,0.0,0 RAX-2,1 37853U 11061D   21075.57399080  .00001629  00000-0  92756-4 0  9992,2 37853 101.7223 299.0275 0165512   6.4083 353.9193 15.05036901512235,6929.529,95.679,666.086,436.702,0.0
37853,RAX-2,PAYLOAD,2021-03-17 12:06:45,15.05039587,0.016549900000000003,101.7222,300.436,3.6509,356.5868,9.119e-05,1.599e-05,0.0,0 RAX-2,1 37853U 11061D   21076.50469246  .00001599  00000-0  91190-4 0  9995,2 37853 101.7222 300.4360 0165499   3.6509 356.5868 15.05039587511894,6929.521,95.679,666.069,436.70300000000003,0.0
37853,RAX-2,PAYLOAD,2021-03-17 13:42:29,15.05039771,0.016549900000000003,101.7222,300.5366,3.4545,356.7768,9.0931e-05,1.594e-05,0.0,0 RAX-2,1 37853U 11061D   21076.57117109  .00001594  00000-0  90931-4 0  9997,2 37853 101.7222 300.5366 0165499   3.4545 356.7768 15.05039771511907,6929.521,95.679,666.068,436.70300000000003,0.0
37853,RAX-2,PAYLOAD,2021-03-18 02:28:19,15.05041872,0.016548900000000002,101.7222,301.3415,1.8801,358.2998,9.4302e-05,1.659e-05,0.0,0 RAX-2,1 37853U 11061D   21077.10299946  .00001659  00000-0  94302-4 0  9995,2 37853 101.7222 301.3415 0165489   1.8801 358.2998 15.05041872512466,6929.514,95.678,666.055,436.70300000000003,0.0
37853,RAX-2,PAYLOAD,2021-03-18 13:38:25,15.05042486,0.0165482,101.7221,302.0458,0.5019,359.63300000000015,8.6658e-05,1.511e-05,0.0,0 RAX-2,1 37853U 11061D   21077.56834921  .00001511  00000-0  86658-4 0  9995,2 37853 101.7221 302.0458 0165482   0.5019 359.6330 15.05042486512052,6929.512,95.678,666.048,436.70599999999996,0.0
37853,RAX-2,PAYLOAD,2021-03-18 20:01:20,15.05043401,0.0165475,101.7221,302.4482,359.7156,0.3936,8.72e-05,1.521e-05,0.0,0 RAX-2,1 37853U 11061D   21077.83426293  .00001521  00000-0  87200-4 0  9999,2 37853 101.7221 302.4482 0165475 359.7156   0.3936 15.05043401512090,6929.509,95.678,666.041,436.708,0.0
37853,RAX-2,PAYLOAD,2021-03-19 08:47:10,15.05045226,0.016546099999999998,101.7221,303.2531,358.1436,1.9142,8.8284e-05,1.542e-05,0.0,0 RAX-2,1 37853U 11061D   21078.36608996  .00001542  00000-0  88284-4 0  9996,2 37853 101.7221 303.2531 0165461 358.1436   1.9142 15.05045226512658,6929.504,95.678,666.025,436.713,0.0
37853,RAX-2,PAYLOAD,2021-03-19 13:34:21,15.05046154,0.0165459,101.72200000000001,303.5549,357.5526,2.4859,9.0553e-05,1.586e-05,0.0,0 RAX-2,1 37853U 11061D   21078.56552480  .00001586  00000-0  90553-4 0  9994,2 37853 101.7220 303.5549 0165459 357.5526   2.4859 15.05046154512202,6929.501,95.678,666.0210000000002,436.711,0.0
37853,RAX-2,PAYLOAD,2021-03-19 19:57:16,15.050470800000001,0.0165452,101.7221,303.9573,356.7667,3.2461,9.1034e-05,1.595e-05,0.0,0 RAX-2,1 37853U 11061D   21078.83143792  .00001595  00000-0  91034-4 0  9991,2 37853 101.7221 303.9573 0165452 356.7667   3.2461 15.05047080512245,6929.498000000001,95.678,666.013,436.713,0.0
37853,RAX-2,PAYLOAD,2021-03-20 10:18:49,15.05048997,0.0165437,101.72200000000001,304.8628,354.9982,4.957,9.057200000000001e-05,1.586e-05,0.0,0 RAX-2,1 37853U 11061D   21079.42974191  .00001586  00000-0  90572-4 0  9998,2 37853 101.7220 304.8628 0165437 354.9982   4.9570 15.05048997512818,6929.4919999999975,95.678,665.997,436.718,0.0
37853,RAX-2,PAYLOAD,2021-03-21 05:27:34,15.05053962,0.0165413,101.72200000000001,306.0701,352.6407,7.2379,0.00010761,1.916e-05,0.0,0 RAX-2,1 37853U 11061D   21080.22747756  .00001916  00000-0  10761-3 0  9991,2 37853 101.7220 306.0701 0165413 352.6407   7.2379 15.05053962512456,6929.477,95.678,665.965,436.719,0.0
37853,RAX-2,PAYLOAD,2021-03-22 03:47:45,15.05059889,0.0165403,101.72200000000001,307.4787,349.89,9.8998,0.00012638,2.2800000000000002e-05,0.0,0 RAX-2,1 37853U 11061D   21081.15816669  .00002280  00000-0  12638-3 0  9994,2 37853 101.7220 307.4787 0165403 349.8900   9.8998 15.05059889513078,6929.459,95.677,665.939,436.709,0.0
